ATLAS CENTAUR 2         
1 00694U 63047A   26200.64875875  .00000444  00000+0  40553-4 0  9991
2 00694  30.3521 177.8470 0545662 163.8016 198.0793 14.12568046150293
THOR AGENA D R/B        
1 00733U 64002A   26200.80967073  .00000069  00000+0  42020-4 0  9991
2 00733  99.1155 221.3013 0031972 232.7200 127.1067 14.34077271257234
SL-3 R/B                
1 00877U 64053B   26200.56094450  .00000018  00000+0  27923-4 0  9998
2 00877  65.0780 304.5884 0080104 250.9366 108.3046 14.61440875286060
SL-8 R/B                
1 02802U 67045B   26200.81711775  .00000124  00000+0  41761-4 0  9990
2 02802  74.0110 101.3169 0063073  76.6778 284.1403 14.45696851108110
SL-8 R/B                
1 03230U 68040B   26200.71255856  .00001415  00000+0  10503-3 0  9997
2 03230  74.0290  43.7631 0024824 190.7707 169.2954 15.03952282109853
OAO 2                   
1 03597U 68110A   26200.82249838  .00000065  00000+0  22622-4 0  9992
2 03597  34.9925 247.4571 0005431 183.3179 176.7476 14.47362636 38251
ISIS 1                  
1 03669U 69009A   26200.76588306  .00000082  00000+0  49637-4 0  9993
2 03669  88.4453 140.8228 1707216 182.4280 176.7572 11.30437001363458
SERT 2                  
1 04327U 70009A   26200.79311045 -.00000012  00000+0  39726-4 0  9996
2 04327  99.2839 136.7567 0004750 176.9277 201.1259 13.58741182797832
SL-3 R/B                
1 05118U 71028B   26200.85138965  .00034601  00000+0  25408-3 0  9993
2 05118  81.2296 247.3694 0014756 166.0340 194.1331 15.72787778  9373
ASTEX 1                 
1 05560U 71089A   26200.48775500  .00000238  00000+0  60553-4 0  9992
2 05560  92.7009 194.2591 0015747   8.4851 351.6618 14.50873377881413
SL-8 R/B                
1 05730U 71119B   26200.67801485  .00004125  00000+0  21217-3 0  9990
2 05730  73.8871 288.5477 0542563 227.9693 127.4074 14.39770214674476
OAO 3 (COPERNICUS)      
1 06153U 72065A   26200.59874318  .00000103  00000+0  25423-4 0  9993
2 06153  35.0054 265.7263 0006337 164.8330 345.4383 14.60075989865489
ATLAS CENTAUR R/B       
1 06155U 72065B   26200.50129142  .00000298  00000+0  43764-4 0  9997
2 06155  35.0005 253.0945 0033174  39.1375 321.1718 14.77968560860770
SL-8 R/B                
1 08459U 75112B   26200.80206126  .00000123  00000+0  48959-4 0  9991
2 08459  74.0610 135.8738 0016017 197.6951 162.3648 14.38259478650860
SL-3 R/B                
1 10114U 77057B   26200.85689775  .00006018  00000+0  11508-3 0  9990
2 10114  97.5860  18.9979 0007668 154.2914 205.8718 15.48468572688766
SEASAT 1                
1 10967U 78064A   26200.47174053 -.00000027  00000+0  31095-4 0  9990
2 10967 108.0180  42.0629 0001052 262.2177  97.8849 14.46261208525563
SL-14 R/B               
1 11267U 79011B   26200.76888666  .00000237  00000+0  20829-4 0  9996
2 11267  82.5260 331.2328 0015354 341.5965  18.4697 14.92040202548472
SL-8 R/B                
1 11574U 79089B   26200.45570753  .00000060  00000+0  26062-4 0  9992
2 11574  74.0669 207.1216 0016180 341.0346  19.0206 14.42415445455105
SL-14 R/B               
1 11672U 80005B   26200.46641230  .00000275  00000+0  25114-4 0  9996
2 11672  82.5140 182.2199 0017346  84.5950 275.7248 14.91052054496121
SL-8 R/B                
1 12139U 81003B   26200.32479756  .00014602  00000+0  34556-3 0  9999
2 12139  82.9376 167.8938 0249766  79.3328 283.5923 15.15176898334587
SL-3 R/B                
1 12465U 81046B   26200.84092216  .00006801  00000+0  14376-3 0  9997
2 12465  81.2313 130.7144 0015653 279.3610  80.5864 15.44843442458812
SL-3 R/B                
1 12904U 81103B   26200.85120270  .00002016  00000+0  85724-4 0  9992
2 12904  81.1566  58.2489 0012342 195.5942 164.4912 15.22507646993330
SL-3 R/B                
1 13068U 82013B   26200.81253255  .00002069  00000+0  86274-4 0  9990
2 13068  81.1738   5.7533 0022913  93.6295 266.7559 15.22980633424450
SL-3 R/B                
1 13154U 82039B   26200.88868441  .00001394  00000+0  81942-4 0  9997
2 13154  81.1513  63.3099 0028805 242.4985 117.3312 15.10712181401596
SL-3 R/B                
1 13403U 82079B   26200.83807677  .00002791  00000+0  10644-3 0  9999
2 13403  81.1449  36.8550 0024885  78.5972 281.8055 15.26038646397843
SL-14 R/B               
1 13553U 82092B   26200.48580332  .00000205  00000+0  20197-4 0  9990
2 13553  82.5671  18.0746 0019256 220.5820 168.3592 14.86766440348517
SL-3 R/B                
1 13819U 83010B   26200.47419233  .00007885  00000+0  13980-3 0  9998
2 13819  81.1002 200.1744 0013011 307.2993  52.7067 15.49978429378332
SL-3 R/B                
1 14208U 83075B   26200.80098630  .00005967  00000+0  14552-3 0  9998
2 14208  97.6112 210.6515 0022390 114.4087 245.9498 15.41034216350482
COSMOS 1536             
1 14699U 84013A   26200.83429595  .00003673  00000+0  14388-3 0  9995
2 14699  82.5464 336.3196 0014386 172.0788 188.0680 15.25378026292751
SL-14 R/B               
1 14820U 84027B   26200.80418294  .00000205  00000+0  20623-4 0  9995
2 14820  82.5429 121.1321 0016354 254.7569 105.1840 14.86080791267250
SL-8 R/B                
1 15483U 85006B   26200.79420196  .00000111  00000+0  45591-4 0  9998
2 15483  74.0456  18.0569 0019246 260.4225 201.7352 14.37846745173012
