OBJECT_NAME,OBJECT_ID,EPOCH,MEAN_MOTION,ECCENTRICITY,INCLINATION,RA_OF_ASC_NODE,ARG_OF_PERICENTER,MEAN_ANOMALY,EPHEMERIS_TYPE,CLASSIFICATION_TYPE,NORAD_CAT_ID,ELEMENT_SET_NO,REV_AT_EPOCH,BSTAR,MEAN_MOTION_DOT,MEAN_MOTION_DDOT
ATLAS CENTAUR 2,1963-047A,2026-07-19T15:34:12.756000,14.12568046,.0545662,30.3521,177.8470,163.8016,198.0793,0,U,694,999,15029,.40553E-4,.444E-5,0
THOR AGENA D R/B,1964-002A,2026-07-19T19:25:55.551072,14.34077271,.0031972,99.1155,221.3013,232.7200,127.1067,0,U,733,999,25723,.4202E-4,.69E-6,0
SL-3 R/B,1964-053B,2026-07-19T13:27:45.604800,14.61440875,.0080104,65.0780,304.5884,250.9366,108.3046,0,U,877,999,28606,.27923E-4,.18E-6,0
SL-8 R/B,1967-045B,2026-07-19T19:36:38.973600,14.45696851,.0063073,74.0110,101.3169,76.6778,284.1403,0,U,2802,999,10811,.41761E-4,.124E-5,0
SL-8 R/B,1968-040B,2026-07-19T17:06:05.059584,15.03952282,.0024824,74.0290,43.7631,190.7707,169.2954,0,U,3230,999,10985,.10503E-3,.1415E-4,0
OAO 2,1968-110A,2026-07-19T19:44:23.860032,14.47362636,.0005431,34.9925,247.4571,183.3179,176.7476,0,U,3597,999,3825,.22622E-4,.65E-6,0
ISIS 1,1969-009A,2026-07-19T18:22:52.296384,11.30437001,.1707216,88.4453,140.8228,182.4280,176.7572,0,U,3669,999,36345,.49637E-4,.82E-6,0
SERT 2,1970-009A,2026-07-19T19:02:04.742880,13.58741182,.000475,99.2839,136.7567,176.9277,201.1259,0,U,4327,999,79783,.39726E-4,-.12E-6,0
SL-3 R/B,1971-028B,2026-07-19T20:26:00.065760,15.72787778,.0014756,81.2296,247.3694,166.0340,194.1331,0,U,5118,999,937,.25408E-3,.34601E-3,0
ASTEX 1,1971-089A,2026-07-19T11:42:22.032000,14.50873377,.00157473,92.7009,194.2591,8.4851,351.6618,0,U,5560,999,88141,.60553423E-4,.238E-5,0
SL-8 R/B,1971-119B,2026-07-19T16:16:20.483040,14.39770214,.0542563,73.8871,288.5477,227.9693,127.4074,0,U,5730,999,67447,.21217E-3,.4125E-4,0
OAO 3 (COPERNICUS),1972-065A,2026-07-19T14:22:11.410752,14.60075989,.0006337,35.0054,265.7263,164.8330,345.4383,0,U,6153,999,86548,.25423E-4,.103E-5,0
ATLAS CENTAUR R/B,1972-065B,2026-07-19T12:01:51.578688,14.77968560,.00331746,35.0005,253.0945,39.1375,321.1718,0,U,6155,999,86077,.43764215E-4,.298E-5,0
SL-8 R/B,1975-112B,2026-07-19T19:14:58.092864,14.38259478,.0016017,74.0610,135.8738,197.6951,162.3648,0,U,8459,999,65086,.48959E-4,.123E-5,0
SL-3 R/B,1977-057B,2026-07-19T20:33:55.965600,15.48468572,.0007668,97.5860,18.9979,154.2914,205.8718,0,U,10114,999,68876,.11508E-3,.6018E-4,0
SEASAT 1,1978-064A,2026-07-19T11:19:18.381792,14.46261208,.00010529,108.0180,42.0629,262.2177,97.8849,0,U,10967,999,52556,.31095467E-4,-.27E-6,0
SL-14 R/B,1979-011B,2026-07-19T18:27:11.807424,14.92040202,.0015354,82.5260,331.2328,341.5965,18.4697,0,U,11267,999,54847,.20829E-4,.237E-5,0
SL-8 R/B,1979-089B,2026-07-19T10:56:13.130592,14.42415445,.00161803,74.0669,207.1216,341.0346,19.0206,0,U,11574,999,45510,.26062244E-4,.6E-6,0
SL-14 R/B,1980-005B,2026-07-19T11:11:38.022720,14.91052054,.00173461,82.5140,182.2199,84.5950,275.7248,0,U,11672,999,49612,.2511355E-4,.275E-5,0
SL-8 R/B,1981-003B,2026-07-19T07:47:42.509184,15.15176898,.02497668,82.9376,167.8938,79.3328,283.5923,0,U,12139,999,33458,.34556133E-3,.14602E-3,0
SL-3 R/B,1981-046B,2026-07-19T20:10:55.674624,15.44843442,.0015653,81.2313,130.7144,279.3610,80.5864,0,U,12465,999,45881,.14376E-3,.6801E-4,0
SL-3 R/B,1981-103B,2026-07-19T20:25:43.913280,15.22507646,.0012342,81.1566,58.2489,195.5942,164.4912,0,U,12904,999,99333,.85724E-4,.2016E-4,0
SL-3 R/B,1982-013B,2026-07-19T19:30:02.812320,15.22980633,.0022913,81.1738,5.7533,93.6295,266.7559,0,U,13068,999,42445,.86274E-4,.2069E-4,0
SL-3 R/B,1982-039B,2026-07-19T21:19:42.333024,15.10712181,.0028805,81.1513,63.3099,242.4985,117.3312,0,U,13154,999,40159,.81942E-4,.1394E-4,0
SL-3 R/B,1982-079B,2026-07-19T20:06:49.832928,15.26038646,.0024885,81.1449,36.8550,78.5972,281.8055,0,U,13403,999,39784,.10644E-3,.2791E-4,0
SL-14 R/B,1982-092B,2026-07-19T11:39:33.406848,14.86766440,.00192565,82.5671,18.0746,220.5820,168.3592,0,U,13553,999,34851,.20197483E-4,.205E-5,0
SL-3 R/B,1983-010B,2026-07-19T11:22:50.217312,15.49978429,.00130111,81.1002,200.1744,307.2993,52.7067,0,U,13819,999,37833,.13979793E-3,.7885E-4,0
SL-3 R/B,1983-075B,2026-07-19T19:13:25.216320,15.41034216,.002239,97.6112,210.6515,114.4087,245.9498,0,U,14208,999,35048,.14552E-3,.5967E-4,0
COSMOS 1536,1984-013A,2026-07-19T20:01:23.170080,15.25378026,.0014386,82.5464,336.3196,172.0788,188.0680,0,U,14699,999,29275,.14388E-3,.3673E-4,0
SL-14 R/B,1984-027B,2026-07-19T19:18:01.406016,14.86080791,.0016354,82.5429,121.1321,254.7569,105.1840,0,U,14820,999,26725,.20623E-4,.205E-5,0
SL-8 R/B,1985-006B,2026-07-19T19:03:39.049344,14.37846745,.0019246,74.0456,18.0569,260.4225,201.7352,0,U,15483,999,17301,.45591E-4,.111E-5,0
